STARLINK-33598          
1 62771U 25015P   25299.52859753  .00056225  00000+0  18962-2 0  9994
2 62771  53.1597 225.3928 0002070  79.4894 280.6340 15.30197607 43948
STARLINK-33600          
1 62772U 25015Q   25299.96058175  .00018906  00000+0  64875-3 0  9991
2 62772  53.1580 223.8213 0001235  79.6870 280.4270 15.30203545 44006
STARLINK-33567          
1 62773U 25015R   25299.93208785  .00043057  00000+0  14569-2 0  9992
2 62773  53.1595 223.6444 0001371 112.6014 247.5132 15.30211592 44008
STARLINK-33574          
1 62774U 25015S   25299.53281571  .00036022  00000+0  12223-2 0  9992
2 62774  53.1600 225.4229 0001074  88.7279 271.3845 15.30203646 43661
STARLINK-33576          
1 62775U 25015T   25299.95003000  .00045623  00000+0  15434-2 0  9992
2 62775  53.1575 223.7603 0001041  85.7439 274.3681 15.30192757 43941
STARLINK-33570          
1 62776U 25015U   25299.53175907  .00022815  00000+0  78002-3 0  9992
2 62776  53.1606 225.4121 0001419  97.4673 262.6489 15.30201661 43884
STARLINK-33591          
1 62777U 25015V   25299.94686595  .00043581  00000+0  14753-2 0  9993
2 62777  53.1585 223.7397 0001269  41.8947 318.2150 15.30191745 44006
STARLINK-33573          
1 62778U 25015W   25299.78668822  .00024490  00000+0  83607-3 0  9992
2 62778  53.1588 224.1595 0001367  83.0846 277.0310 15.30207592 43984
STARLINK-33568          
1 62779U 25015X   25299.94053681  .00035321  00000+0  11989-2 0  9990
2 62779  53.1587 223.6998 0000948  20.9111 339.1929 15.30203018 43844
STARLINK-33593          
1 62780U 25015Y   25299.52964825  .00016524  00000+0  56962-3 0  9992
2 62780  53.1602 225.3985 0001384  63.9343 296.1800 15.30151069 43947
STARLINK-33588          
1 62781U 25015Z   25299.94210396  .00005164  00000+0  18642-3 0  9997
2 62781  53.1569 221.5137 0001297  95.3052 264.8097 15.30189596 44033
STARLINK-33585          
1 62782U 25015AA  25299.51593043  .00027723  00000+0  94455-3 0  9995
2 62782  53.1609 225.3153 0001511  96.2719 263.8454 15.30203284 43663
STARLINK-33582          
1 62783U 25015AB  25299.93103463  .00025400  00000+0  86653-3 0  9996
2 62783  53.1601 223.6376 0001332  91.3041 268.8113 15.30209939 43939
STARLINK-33581          
1 62784U 25015AC  25299.50443529  .00036414  00000+0  12355-2 0  9994
2 62784  53.1585 225.9512 0001046  82.4055 277.7065 15.30200241 43938
STARLINK-32883          
1 62806U 25018A   25299.95154578  .00024120  00000+0  82368-3 0  9997
2 62806  53.1600 210.7186 0001362 100.8985 259.2169 15.30206460 43612
STARLINK-32886          
1 62807U 25018B   25299.95049047  .00026240  00000+0  89472-3 0  9990
2 62807  53.1601 210.7095 0001099 104.7330 255.3793 15.30207414 42706
