[{"OBJECT_NAME":"STARLINK-33598","OBJECT_ID":"2025-015P","EPOCH":"2025-10-26T12:41:10.826592","MEAN_MOTION":15.30197607,"ECCENTRICITY":0.00020708,"INCLINATION":53.1597,"RA_OF_ASC_NODE":225.3928,"ARG_OF_PERICENTER":79.4894,"MEAN_ANOMALY":280.634,"EPHEMERIS_TYPE":0,"CLASSIFICATION_TYPE":"U","NORAD_CAT_ID":62771,"ELEMENT_SET_NO":999,"REV_AT_EPOCH":4394,"BSTAR":0.0018962371,"MEAN_MOTION_DOT":0.00056225,"MEAN_MOTION_DDOT":0},{"OBJECT_NAME":"STARLINK-33600","OBJECT_ID":"2025-015Q","EPOCH":"2025-10-26T23:03:14.263200","MEAN_MOTION":15.30203545,"ECCENTRICITY":0.0001235,"INCLINATION":53.158,"RA_OF_ASC_NODE":223.8213,"ARG_OF_PERICENTER":79.687,"MEAN_ANOMALY":280.427,"EPHEMERIS_TYPE":0,"CLASSIFICATION_TYPE":"U","NORAD_CAT_ID":62772,"ELEMENT_SET_NO":999,"REV_AT_EPOCH":4400,"BSTAR":0.00064875039,"MEAN_MOTION_DOT":0.00018906,"MEAN_MOTION_DDOT":0},{"OBJECT_NAME":"STARLINK-33567","OBJECT_ID":"2025-015R","EPOCH":"2025-10-26T22:22:12.390240","MEAN_MOTION":15.30211592,"ECCENTRICITY":0.00013712,"INCLINATION":53.1595,"RA_OF_ASC_NODE":223.6444,"ARG_OF_PERICENTER":112.6014,"MEAN_ANOMALY":247.5132,"EPHEMERIS_TYPE":0,"CLASSIFICATION_TYPE":"U","NORAD_CAT_ID":62773,"ELEMENT_SET_NO":999,"REV_AT_EPOCH":4400,"BSTAR":0.0014569223,"MEAN_MOTION_DOT":0.00043057,"MEAN_MOTION_DDOT":0},{"OBJECT_NAME":"STARLINK-33574","OBJECT_ID":"2025-015S","EPOCH":"2025-10-26T12:47:15.277344","MEAN_MOTION":15.30203646,"ECCENTRICITY":0.00010744,"INCLINATION":53.16,"RA_OF_ASC_NODE":225.4229,"ARG_OF_PERICENTER":88.7279,"MEAN_ANOMALY":271.3845,"EPHEMERIS_TYPE":0,"CLASSIFICATION_TYPE":"U","NORAD_CAT_ID":62774,"ELEMENT_SET_NO":999,"REV_AT_EPOCH":4366,"BSTAR":0.0012223193,"MEAN_MOTION_DOT":0.00036022,"MEAN_MOTION_DDOT":0},{"OBJECT_NAME":"STARLINK-33576","OBJECT_ID":"2025-015T","EPOCH":"2025-10-26T22:48:02.592000","MEAN_MOTION":15.30192757,"ECCENTRICITY":0.00010411,"INCLINATION":53.1575,"RA_OF_ASC_NODE":223.7603,"ARG_OF_PERICENTER":85.7439,"MEAN_ANOMALY":274.3681,"EPHEMERIS_TYPE":0,"CLASSIFICATION_TYPE":"U","NORAD_CAT_ID":62775,"ELEMENT_SET_NO":999,"REV_AT_EPOCH":4394,"BSTAR":0.0015434042,"MEAN_MOTION_DOT":0.00045623,"MEAN_MOTION_DDOT":0},{"OBJECT_NAME":"STARLINK-33570","OBJECT_ID":"2025-015U","EPOCH":"2025-10-26T12:45:43.983648","MEAN_MOTION":15.30201661,"ECCENTRICITY":0.00014197,"INCLINATION":53.1606,"RA_OF_ASC_NODE":225.4121,"ARG_OF_PERICENTER":97.4673,"MEAN_ANOMALY":262.6489,"EPHEMERIS_TYPE":0,"CLASSIFICATION_TYPE":"U","NORAD_CAT_ID":62776,"ELEMENT_SET_NO":999,"REV_AT_EPOCH":4388,"BSTAR":0.00078001692,"MEAN_MOTION_DOT":0.00022815,"MEAN_MOTION_DDOT":0},{"OBJECT_NAME":"STARLINK-33591","OBJECT_ID":"2025-015V","EPOCH":"2025-10-26T22:43:29.218080","MEAN_MOTION":15.30191745,"ECCENTRICITY":0.0001269,"INCLINATION":53.1585,"RA_OF_ASC_NODE":223.7397,"ARG_OF_PERICENTER":41.8947,"MEAN_ANOMALY":318.215,"EPHEMERIS_TYPE":0,"CLASSIFICATION_TYPE":"U","NORAD_CAT_ID":62777,"ELEMENT_SET_NO":999,"REV_AT_EPOCH":4400,"BSTAR":0.0014753375,"MEAN_MOTION_DOT":0.00043581,"MEAN_MOTION_DDOT":0},{"OBJECT_NAME":"STARLINK-33573","OBJECT_ID":"2025-015W","EPOCH":"2025-10-26T18:52:49.862208","MEAN_MOTION":15.30207592,"ECCENTRICITY":0.00013676,"INCLINATION":53.1588,"RA_OF_ASC_NODE":224.1595,"ARG_OF_PERICENTER":83.0846,"MEAN_ANOMALY":277.031,"EPHEMERIS_TYPE":0,"CLASSIFICATION_TYPE":"U","NORAD_CAT_ID":62778,"ELEMENT_SET_NO":999,"REV_AT_EPOCH":4398,"BSTAR":0.00083607108,"MEAN_MOTION_DOT":0.0002449,"MEAN_MOTION_DDOT":0},{"OBJECT_NAME":"STARLINK-33568","OBJECT_ID":"2025-015X","EPOCH":"2025-10-26T22:34:22.380384","MEAN_MOTION":15.30203018,"ECCENTRICITY":9.481e-5,"INCLINATION":53.1587,"RA_OF_ASC_NODE":223.6998,"ARG_OF_PERICENTER":20.9111,"MEAN_ANOMALY":339.1929,"EPHEMERIS_TYPE":0,"CLASSIFICATION_TYPE":"U","NORAD_CAT_ID":62779,"ELEMENT_SET_NO":999,"REV_AT_EPOCH":4384,"BSTAR":0.0011988884,"MEAN_MOTION_DOT":0.00035321,"MEAN_MOTION_DDOT":0},{"OBJECT_NAME":"STARLINK-33593","OBJECT_ID":"2025-015Y","EPOCH":"2025-10-26T12:42:41.608800","MEAN_MOTION":15.30151069,"ECCENTRICITY":0.00013848,"INCLINATION":53.1602,"RA_OF_ASC_NODE":225.3985,"ARG_OF_PERICENTER":63.9343,"MEAN_ANOMALY":296.18,"EPHEMERIS_TYPE":0,"CLASSIFICATION_TYPE":"U","NORAD_CAT_ID":62780,"ELEMENT_SET_NO":999,"REV_AT_EPOCH":4394,"BSTAR":0.00056962305,"MEAN_MOTION_DOT":0.00016524,"MEAN_MOTION_DDOT":0},{"OBJECT_NAME":"STARLINK-33588","OBJECT_ID":"2025-015Z","EPOCH":"2025-10-26T22:36:37.782144","MEAN_MOTION":15.30189596,"ECCENTRICITY":0.00012976,"INCLINATION":53.1569,"RA_OF_ASC_NODE":221.5137,"ARG_OF_PERICENTER":95.3052,"MEAN_ANOMALY":264.8097,"EPHEMERIS_TYPE":0,"CLASSIFICATION_TYPE":"U","NORAD_CAT_ID":62781,"ELEMENT_SET_NO":999,"REV_AT_EPOCH":4403,"BSTAR":0.0001864218,"MEAN_MOTION_DOT":5.164e-5,"MEAN_MOTION_DDOT":0},{"OBJECT_NAME":"STARLINK-33585","OBJECT_ID":"2025-015AA","EPOCH":"2025-10-26T12:22:56.389152","MEAN_MOTION":15.30203284,"ECCENTRICITY":0.00015116,"INCLINATION":53.1609,"RA_OF_ASC_NODE":225.3153,"ARG_OF_PERICENTER":96.2719,"MEAN_ANOMALY":263.8454,"EPHEMERIS_TYPE":0,"CLASSIFICATION_TYPE":"U","NORAD_CAT_ID":62782,"ELEMENT_SET_NO":999,"REV_AT_EPOCH":4366,"BSTAR":0.0009445495,"MEAN_MOTION_DOT":0.00027723,"MEAN_MOTION_DDOT":0},{"OBJECT_NAME":"STARLINK-33582","OBJECT_ID":"2025-015AB","EPOCH":"2025-10-26T22:20:41.392032","MEAN_MOTION":15.30209939,"ECCENTRICITY":0.0001332,"INCLINATION":53.1601,"RA_OF_ASC_NODE":223.6376,"ARG_OF_PERICENTER":91.3041,"MEAN_ANOMALY":268.8113,"EPHEMERIS_TYPE":0,"CLASSIFICATION_TYPE":"U","NORAD_CAT_ID":62783,"ELEMENT_SET_NO":999,"REV_AT_EPOCH":4393,"BSTAR":0.00086652541,"MEAN_MOTION_DOT":0.000254,"MEAN_MOTION_DDOT":0},{"OBJECT_NAME":"STARLINK-33581","OBJECT_ID":"2025-015AC","EPOCH":"2025-10-26T12:06:23.209056","MEAN_MOTION":15.30200241,"ECCENTRICITY":0.00010467,"INCLINATION":53.1585,"RA_OF_ASC_NODE":225.9512,"ARG_OF_PERICENTER":82.4055,"MEAN_ANOMALY":277.7065,"EPHEMERIS_TYPE":0,"CLASSIFICATION_TYPE":"U","NORAD_CAT_ID":62784,"ELEMENT_SET_NO":999,"REV_AT_EPOCH":4393,"BSTAR":0.0012355432,"MEAN_MOTION_DOT":0.00036414,"MEAN_MOTION_DDOT":0},{"OBJECT_NAME":"STARLINK-32883","OBJECT_ID":"2025-018A","EPOCH":"2025-10-26T22:50:13.555392","MEAN_MOTION":15.3020646,"ECCENTRICITY":0.00013622,"INCLINATION":53.16,"RA_OF_ASC_NODE":210.7186,"ARG_OF_PERICENTER":100.8985,"MEAN_ANOMALY":259.2169,"EPHEMERIS_TYPE":0,"CLASSIFICATION_TYPE":"U","NORAD_CAT_ID":62806,"ELEMENT_SET_NO":999,"REV_AT_EPOCH":4361,"BSTAR":0.00082368343,"MEAN_MOTION_DOT":0.0002412,"MEAN_MOTION_DDOT":0},{"OBJECT_NAME":"STARLINK-32886","OBJECT_ID":"2025-018B","EPOCH":"2025-10-26T22:48:42.376608","MEAN_MOTION":15.30207414,"ECCENTRICITY":0.00010998,"INCLINATION":53.1601,"RA_OF_ASC_NODE":210.7095,"ARG_OF_PERICENTER":104.733,"MEAN_ANOMALY":255.3793,"EPHEMERIS_TYPE":0,"CLASSIFICATION_TYPE":"U","NORAD_CAT_ID":62807,"ELEMENT_SET_NO":999,"REV_AT_EPOCH":4270,"BSTAR":0.00089472459,"MEAN_MOTION_DOT":0.0002624,"MEAN_MOTION_DDOT":0}]
